[{"OBJECT_NAME":"STSAT-3","OBJECT_ID":"2013-066G","EPOCH":"2026-03-09T22:41:44.680992","MEAN_MOTION":15.02088505,"ECCENTRICITY":0.0011318,"INCLINATION":97.6065,"RA_OF_ASC_NODE":40.5626,"ARG_OF_PERICENTER":13.5672,"MEAN_ANOMALY":346.5855,"EPHEMERIS_TYPE":0,"CLASSIFICATION_TYPE":"U","NORAD_CAT_ID":39422,"ELEMENT_SET_NO":999,"REV_AT_EPOCH":66930,"BSTAR":0.00035941523,"MEAN_MOTION_DOT":4.668e-5,"MEAN_MOTION_DDOT":0},{"OBJECT_NAME":"STARLINK-6200","OBJECT_ID":"2023-083X","EPOCH":"2026-03-09T08:35:55.335840","MEAN_MOTION":15.02537202,"ECCENTRICITY":0.00011392,"INCLINATION":43.0032,"RA_OF_ASC_NODE":83.3035,"ARG_OF_PERICENTER":266.4811,"MEAN_ANOMALY":93.5901,"EPHEMERIS_TYPE":0,"CLASSIFICATION_TYPE":"U","NORAD_CAT_ID":56897,"ELEMENT_SET_NO":999,"REV_AT_EPOCH":15174,"BSTAR":8.9100374e-5,"MEAN_MOTION_DOT":1.0e-5,"MEAN_MOTION_DDOT":0}]
